     2.100          NAVIGATION                              RINEX VERSION / TYPE
fic2rin                                 10/04/2012 00:58:44 PGM / RUN BY / DATE
                                                            END OF HEADER
12 12 10  3  4  0  0.0  .941273756325D-04  .204636307899D-11  .000000000000D+00
     .900000000000D+01 -.912500000000D+01  .388123309751D-08 -.304878329029D+00
    -.588595867157D-06  .399088033009D-02  .110678374767D-04  .515370945358D+04
     .273600000000D+06  .819563865662D-07  .728531263646D+00  .409781932831D-07
     .981400711782D+00  .177437500000D+03  .149225726708D+00 -.769317759458D-08
     .304655547269D-09  .100000000000D+01  .170800000000D+04  .000000000000D+00
     .240000000000D+01  .000000000000D+00 -.121071934700D-07  .900000000000D+01
     .266406000000D+06  .400000000000D+01
13 12 10  3  4  0  0.0  .177022535354D-03 -.261479726760D-11  .000000000000D+00
     .960000000000D+02  .226250000000D+02  .438268255632D-08  .233888859649D+01
     .127963721752D-05  .479500310030D-02  .213645398617D-05  .515360898972D+04
     .273600000000D+06  .132247805595D-06 -.129715410025D+01 -.465661287308D-07
     .983934722888D+00  .347406250000D+03  .208190230084D+01 -.817034032747D-08
    -.414302971667D-10  .100000000000D+01  .170800000000D+04  .000000000000D+00
     .240000000000D+01  .000000000000D+00 -.111758708954D-07  .960000000000D+02
     .266406000000D+06  .400000000000D+01
14 12 10  3  4  0  0.0  .214014668018D-03  .795807864051D-12  .000000000000D+00
     .920000000000D+02  .306250000000D+02  .448518682603D-08  .258937837137D+01
     .148080289364D-05  .684423733037D-02  .221654772758D-05  .515364745331D+04
     .273600000000D+06 -.484287738800D-07 -.132476554962D+01 -.109896063805D-06
     .976708590759D+00  .342906250000D+03 -.204283639455D+01 -.817855495536D-08
     .428589281035D-11  .100000000000D+01  .170800000000D+04  .000000000000D+00
     .340000000000D+01  .000000000000D+00 -.931322574615D-08  .920000000000D+02
     .266406000000D+06  .400000000000D+01
15 12 10  3  4  0  0.0 -.965152867138D-04 -.795807864051D-12  .000000000000D+00
     .200000000000D+02  .507187500000D+02  .541593988135D-08  .217559649990D+01
     .272691249847D-05  .469632120803D-02  .190548598766D-05  .515363825226D+04
     .273600000000D+06 -.670552253723D-07 -.141688319698D+01  .124797224998D-06
     .943454877014D+00  .334375000000D+03  .363594610318D-01 -.873822112484D-08
     .126076680171D-09  .100000000000D+01  .170800000000D+04  .000000000000D+00
     .240000000000D+01  .000000000000D+00 -.102445483208D-07  .200000000000D+02
     .266406000000D+06  .400000000000D+01
16 12 10  3  4  0  0.0 -.247219111770D-03 -.682121026330D-12  .000000000000D+00
     .310000000000D+02 -.165625000000D+01  .379765818771D-08 -.252917435945D+01
    -.109896063805D-06  .653317128308D-02  .104624778032D-04  .515375942421D+04
     .273600000000D+06 -.558793544769D-07  .746763090869D+00 -.372529029846D-07
     .982168688182D+00  .190718750000D+03  .315519391792D-01 -.758067290831D-08
     .353943314588D-09  .100000000000D+01  .170800000000D+04  .000000000000D+00
     .240000000000D+01  .000000000000D+00 -.977888703346D-08  .310000000000D+02
     .266406000000D+06  .400000000000D+01
17 12 10  3  4  0  0.0  .912854447961D-04 -.318323145621D-11  .000000000000D+00
     .410000000000D+02  .634375000000D+01  .466126558899D-08  .284393760400D+01
     .353902578354D-06  .757514673751D-02  .480003654957D-05  .515373556709D+04
     .273600000000D+06  .298023223877D-07  .178629472799D+01 -.856816768646D-07
     .963344554687D+00  .287093750000D+03 -.229597150861D+01 -.804140638542D-08
     .216437586923D-09  .100000000000D+01  .170800000000D+04  .000000000000D+00
     .240000000000D+01  .000000000000D+00 -.107102096081D-07  .410000000000D+02
     .266406000000D+06  .400000000000D+01
18 12 10  3  4  0  0.0  .217848457396D-03  .181898940355D-11  .000000000000D+00
     .290000000000D+02  .953437500000D+02  .501342311491D-08 -.198153871385D+01
     .484660267830D-05  .136349361856D-01  .989623367786D-05  .515374149895D+04
     .273600000000D+06  .178813934326D-06 -.243411089394D+01 -.484287738800D-07
     .929025630309D+00  .167500000000D+03 -.214221645733D+01 -.807676500111D-08
     .283583240952D-09  .100000000000D+01  .170800000000D+04  .000000000000D+00
     .240000000000D+01  .000000000000D+00 -.107102096081D-07  .290000000000D+02
     .266406000000D+06  .400000000000D+01
19 12 10  3  4  0  0.0 -.309392809868D-03 -.352429196937D-11  .000000000000D+00
     .720000000000D+02  .459375000000D+01  .484163024476D-08  .202675569035D+01
     .229105353355D-06  .861115311272D-02  .490993261337D-05  .515361973381D+04
     .273600000000D+06 -.130385160446D-06  .183897936732D+01  .122934579849D-06
     .960684263030D+00  .285906250000D+03  .257235847523D+00 -.826320133836D-08
     .828605943335D-10  .100000000000D+01  .170800000000D+04  .000000000000D+00
     .240000000000D+01  .000000000000D+00 -.149011611938D-07  .720000000000D+02
     .266406000000D+06  .400000000000D+01
20 12 10  3  4  0  0.0  .695795752108D-04  .909494701773D-12  .000000000000D+00
     .810000000000D+02  .773437500000D+02  .509878381338D-08 -.151790795126D+01
     .415556132793D-05  .508244137745D-02  .956840813160D-05  .515363205338D+04
     .273600000000D+06  .912696123123D-07 -.248773440483D+01  .987201929092D-07
     .929636601953D+00  .180406250000D+03  .127502726241D+01 -.825177229087D-08
     .146434671020D-09  .100000000000D+01  .170800000000D+04  .000000000000D+00
     .340000000000D+01  .000000000000D+00 -.791624188423D-08  .810000000000D+02
     .266406000000D+06  .400000000000D+01
22 12 10  3  4  0  0.0  .148765277117D-03  .454747350886D-12  .000000000000D+00
     .900000000000D+02  .912812500000D+02  .508414034628D-08 -.273288086851D+01
     .458210706711D-05  .627665908542D-02  .101700425148D-04  .515368244743D+04
     .273600000000D+06  .102445483208D-06 -.243100432303D+01 -.353902578354D-07
     .926754432436D+00  .163687500000D+03 -.200752192809D+01 -.819819863074D-08
     .191079387795D-09  .100000000000D+01  .170800000000D+04  .000000000000D+00
     .340000000000D+01  .000000000000D+00 -.172294676304D-07  .900000000000D+02
     .266406000000D+06  .400000000000D+01
23 12 10  3  4  0  0.0  .158323906362D-03 -.386535248253D-11  .000000000000D+00
     .101000000000D+03  .370312500000D+02  .502128058506D-08  .163793808142D+01
     .209175050259D-05  .824573636055D-02  .252760946751D-05  .515357930565D+04
     .273600000000D+06  .316649675369D-07 -.137922825176D+01  .193715095520D-06
     .958267270741D+00  .331281250000D+03 -.292655955836D+01 -.857071414750D-08
    -.535736601294D-11  .100000000000D+01  .170800000000D+04  .000000000000D+00
     .240000000000D+01  .000000000000D+00 -.200234353542D-07  .101000000000D+03
     .266406000000D+06  .400000000000D+01
25 12 10  3  4  0  0.0  .450029037893D-04  .147792889038D-11  .000000000000D+00
     .750000000000D+02 -.173437500000D+02  .399873799206D-08 -.146618843849D+01
    -.879168510437D-06  .182557397056D-02  .111814588308D-04  .515365689087D+04
     .273600000000D+06  .745058059692D-07  .692983543672D+00 -.186264514923D-07
     .970273332625D+00  .171750000000D+03  .765219743731D+00 -.770817821942D-08
     .271439877989D-09  .100000000000D+01  .170800000000D+04  .000000000000D+00
     .240000000000D+01  .000000000000D+00  .512227416039D-08  .750000000000D+02
     .266406000000D+06  .400000000000D+01
26 12 10  3  4  0  0.0 -.259808264673D-03  .133013600134D-10  .000000000000D+00
     .340000000000D+02  .247187500000D+02  .457697636372D-08  .149741485498D+01
     .916421413422D-06  .207943668356D-01  .258907675743D-05  .515365724564D+04
     .273600000000D+06 -.441446900368D-06 -.130367342643D+01 -.340864062309D-06
     .981441252168D+00  .344437500000D+03  .120833808930D+01 -.840963600938D-08
     .550022910662D-10  .100000000000D+01  .170800000000D+04  .000000000000D+00
     .240000000000D+01  .000000000000D+00 -.605359673500D-08  .340000000000D+02
     .266406000000D+06  .400000000000D+01
28 12 10  3  4  0  0.0  .191289000213D-03  .363797880709D-11  .000000000000D+00
     .760000000000D+02  .000000000000D+00  .368872507878D-08 -.278239613385D+01
    -.353902578354D-07  .180987906642D-01  .108852982521D-04  .515363466454D+04
     .273600000000D+06  .141561031342D-06  .753320827431D+00 -.614672899246D-07
     .980555402606D+00  .176625000000D+03 -.181957624596D+01 -.724315884950D-08
     .416803075807D-09  .100000000000D+01  .170800000000D+04  .000000000000D+00
     .240000000000D+01  .000000000000D+00 -.107102096081D-07  .760000000000D+02
     .266406000000D+06  .400000000000D+01
29 12 10  3  4  0  0.0  .361947808415D-03  .409272615798D-11  .000000000000D+00
     .200000000000D+02  .271875000000D+01  .473412576677D-08 -.642851403810D+00
     .223517417908D-06  .180509709753D-02  .499375164509D-05  .515376874352D+04
     .273600000000D+06 -.782310962677D-07  .179494188461D+01  .745058059692D-08
     .963921545670D+00  .285437500000D+03 -.106617494340D+01 -.818034074403D-08
     .195365280605D-09  .100000000000D+01  .170800000000D+04  .000000000000D+00
     .240000000000D+01  .000000000000D+00 -.977888703346D-08  .200000000000D+02
     .266406000000D+06  .400000000000D+01
30 12 10  3  4  0  0.0 -.383257865906D-03  .198951966013D-10  .000000000000D+00
     .410000000000D+02 -.228125000000D+02  .418624580251D-08  .270969170784D+01
    -.108219683170D-05  .111209828174D-01  .104159116745D-04  .515372178078D+04
     .273600000000D+06  .141561031342D-06  .600943278831D+00  .186264514923D-08
     .961504137912D+00  .177500000000D+03  .161055525834D+01 -.761067415798D-08
     .192150860997D-09  .100000000000D+01  .170800000000D+04  .000000000000D+00
     .965000000000D+01  .000000000000D+00 -.419095158577D-08  .410000000000D+02
     .266406000000D+06  .400000000000D+01
